[{"OBJECT_NAME":"NINGXIA-1 5","OBJECT_ID":"2019-076E","EPOCH":"2026-03-09T22:23:55.574304","MEAN_MOTION":14.02008199,"ECCENTRICITY":0.00108539,"INCLINATION":45.0049,"RA_OF_ASC_NODE":262.7512,"ARG_OF_PERICENTER":33.6952,"MEAN_ANOMALY":326.457,"EPHEMERIS_TYPE":0,"CLASSIFICATION_TYPE":"U","NORAD_CAT_ID":44783,"ELEMENT_SET_NO":999,"REV_AT_EPOCH":32384,"BSTAR":-4.87687e-6,"MEAN_MOTION_DOT":-1.37e-6,"MEAN_MOTION_DDOT":0},{"OBJECT_NAME":"FENGYUN 1C DEB","OBJECT_ID":"1999-025HL","EPOCH":"2026-03-09T15:42:11.844864","MEAN_MOTION":14.03177426,"ECCENTRICITY":0.0034641,"INCLINATION":98.8347,"RA_OF_ASC_NODE":99.7431,"ARG_OF_PERICENTER":231.7827,"MEAN_ANOMALY":250.714,"EPHEMERIS_TYPE":0,"CLASSIFICATION_TYPE":"U","NORAD_CAT_ID":29914,"ELEMENT_SET_NO":999,"REV_AT_EPOCH":98005,"BSTAR":6.1709e-5,"MEAN_MOTION_DOT":5.4e-7,"MEAN_MOTION_DDOT":0}]
